[{"OBJECT_NAME":"FLOCK 4Q-27","OBJECT_ID":"2023-174AC","EPOCH":"2026-03-09T18:08:56.455008","MEAN_MOTION":15.49038169,"ECCENTRICITY":0.00065991,"INCLINATION":97.3847,"RA_OF_ASC_NODE":156.6778,"ARG_OF_PERICENTER":148.7525,"MEAN_ANOMALY":211.412,"EPHEMERIS_TYPE":0,"CLASSIFICATION_TYPE":"U","NORAD_CAT_ID":58282,"ELEMENT_SET_NO":999,"REV_AT_EPOCH":13033,"BSTAR":0.00055152381,"MEAN_MOTION_DOT":0.00029883,"MEAN_MOTION_DDOT":0},{"OBJECT_NAME":"CZ-2C R\/B","OBJECT_ID":"2024-007B","EPOCH":"2026-03-09T13:33:21.523680","MEAN_MOTION":15.39758847,"ECCENTRICITY":0.00678111,"INCLINATION":29.0105,"RA_OF_ASC_NODE":269.6864,"ARG_OF_PERICENTER":313.7067,"MEAN_ANOMALY":45.794,"EPHEMERIS_TYPE":0,"CLASSIFICATION_TYPE":"U","NORAD_CAT_ID":58754,"ELEMENT_SET_NO":999,"REV_AT_EPOCH":12080,"BSTAR":0.0004050997,"MEAN_MOTION_DOT":0.00018271,"MEAN_MOTION_DDOT":0}]
